[{"OBJECT_NAME":"STARLINK-4370","OBJECT_ID":"2022-084AU","EPOCH":"2026-03-09T21:01:05.677824","MEAN_MOTION":15.05657198,"ECCENTRICITY":8.897e-5,"INCLINATION":97.6025,"RA_OF_ASC_NODE":131.3965,"ARG_OF_PERICENTER":128.6343,"MEAN_ANOMALY":231.4964,"EPHEMERIS_TYPE":0,"CLASSIFICATION_TYPE":"U","NORAD_CAT_ID":53231,"ELEMENT_SET_NO":999,"REV_AT_EPOCH":19941,"BSTAR":0.00012744619,"MEAN_MOTION_DOT":1.779e-5,"MEAN_MOTION_DDOT":0},{"OBJECT_NAME":"CZ-2F DEB","OBJECT_ID":"2022-093H","EPOCH":"2026-03-09T22:47:12.359904","MEAN_MOTION":15.21733628,"ECCENTRICITY":0.00740619,"INCLINATION":50.0217,"RA_OF_ASC_NODE":315.3952,"ARG_OF_PERICENTER":34.8084,"MEAN_ANOMALY":325.7683,"EPHEMERIS_TYPE":0,"CLASSIFICATION_TYPE":"U","NORAD_CAT_ID":53364,"ELEMENT_SET_NO":999,"REV_AT_EPOCH":19831,"BSTAR":0.00048014935,"MEAN_MOTION_DOT":0.00011557,"MEAN_MOTION_DDOT":0}]
